[{"OBJECT_NAME":"CORVUS BC1","OBJECT_ID":"2017-042Y","EPOCH":"2026-03-09T22:24:00.973440","MEAN_MOTION":15.05817893,"ECCENTRICITY":0.00132832,"INCLINATION":97.3986,"RA_OF_ASC_NODE":234.9925,"ARG_OF_PERICENTER":71.1953,"MEAN_ANOMALY":289.0714,"EPHEMERIS_TYPE":0,"CLASSIFICATION_TYPE":"U","NORAD_CAT_ID":42847,"ELEMENT_SET_NO":999,"REV_AT_EPOCH":47215,"BSTAR":0.00033801202,"MEAN_MOTION_DOT":4.853e-5,"MEAN_MOTION_DDOT":0},{"OBJECT_NAME":"STARLINK-5528","OBJECT_ID":"2023-083Q","EPOCH":"2026-03-09T10:27:38.287584","MEAN_MOTION":15.02541661,"ECCENTRICITY":9.055e-5,"INCLINATION":43.0025,"RA_OF_ASC_NODE":83.0319,"ARG_OF_PERICENTER":297.633,"MEAN_ANOMALY":62.442,"EPHEMERIS_TYPE":0,"CLASSIFICATION_TYPE":"U","NORAD_CAT_ID":56890,"ELEMENT_SET_NO":999,"REV_AT_EPOCH":15163,"BSTAR":-8.8718872e-5,"MEAN_MOTION_DOT":-1.402e-5,"MEAN_MOTION_DDOT":0}]
